[{"OBJECT_NAME":"HULIANWANG DIGUI-129","OBJECT_ID":"2025-311B","EPOCH":"2026-03-04T20:27:16.159104","MEAN_MOTION":13.33962421,"ECCENTRICITY":9.024e-5,"INCLINATION":50.0064,"RA_OF_ASC_NODE":129.8324,"ARG_OF_PERICENTER":289.9521,"MEAN_ANOMALY":70.1256,"EPHEMERIS_TYPE":0,"CLASSIFICATION_TYPE":"U","NORAD_CAT_ID":67237,"ELEMENT_SET_NO":999,"REV_AT_EPOCH":946,"BSTAR":0.00014559803,"MEAN_MOTION_DOT":-5.3e-7,"MEAN_MOTION_DDOT":0},{"OBJECT_NAME":"HULIANWANG DIGUI-130","OBJECT_ID":"2025-311C","EPOCH":"2026-03-04T21:35:22.767648","MEAN_MOTION":13.32770424,"ECCENTRICITY":0.00010746,"INCLINATION":50.0044,"RA_OF_ASC_NODE":130.0596,"ARG_OF_PERICENTER":281.7227,"MEAN_ANOMALY":78.3526,"EPHEMERIS_TYPE":0,"CLASSIFICATION_TYPE":"U","NORAD_CAT_ID":67238,"ELEMENT_SET_NO":999,"REV_AT_EPOCH":946,"BSTAR":0.00015587119,"MEAN_MOTION_DOT":-4.9e-7,"MEAN_MOTION_DDOT":0},{"OBJECT_NAME":"HULIANWANG DIGUI-131","OBJECT_ID":"2025-311D","EPOCH":"2026-03-05T04:58:58.851840","MEAN_MOTION":13.32648443,"ECCENTRICITY":4.517e-5,"INCLINATION":50.0041,"RA_OF_ASC_NODE":129.0155,"ARG_OF_PERICENTER":272.5117,"MEAN_ANOMALY":87.5705,"EPHEMERIS_TYPE":0,"CLASSIFICATION_TYPE":"U","NORAD_CAT_ID":67239,"ELEMENT_SET_NO":999,"REV_AT_EPOCH":950,"BSTAR":0.0001616167,"MEAN_MOTION_DOT":-4.6e-7,"MEAN_MOTION_DDOT":0},{"OBJECT_NAME":"HULIANWANG DIGUI-132","OBJECT_ID":"2025-311E","EPOCH":"2026-03-04T17:36:27.722016","MEAN_MOTION":13.33118792,"ECCENTRICITY":2.425e-5,"INCLINATION":50.0052,"RA_OF_ASC_NODE":130.5236,"ARG_OF_PERICENTER":246.693,"MEAN_ANOMALY":113.3919,"EPHEMERIS_TYPE":0,"CLASSIFICATION_TYPE":"U","NORAD_CAT_ID":67240,"ELEMENT_SET_NO":999,"REV_AT_EPOCH":944,"BSTAR":0.00012928748,"MEAN_MOTION_DOT":-6.2e-7,"MEAN_MOTION_DDOT":0},{"OBJECT_NAME":"HULIANWANG DIGUI-133","OBJECT_ID":"2025-311F","EPOCH":"2026-03-04T20:49:43.609440","MEAN_MOTION":13.3355919,"ECCENTRICITY":5.039e-5,"INCLINATION":50.0097,"RA_OF_ASC_NODE":129.9321,"ARG_OF_PERICENTER":260.1025,"MEAN_ANOMALY":99.9792,"EPHEMERIS_TYPE":0,"CLASSIFICATION_TYPE":"U","NORAD_CAT_ID":67241,"ELEMENT_SET_NO":999,"REV_AT_EPOCH":946,"BSTAR":0.0001439979,"MEAN_MOTION_DOT":-5.4e-7,"MEAN_MOTION_DDOT":0},{"OBJECT_NAME":"HULIANWANG DIGUI-134","OBJECT_ID":"2025-311G","EPOCH":"2026-03-04T17:25:23.909088","MEAN_MOTION":13.33383633,"ECCENTRICITY":2.011e-5,"INCLINATION":50.0024,"RA_OF_ASC_NODE":130.4695,"ARG_OF_PERICENTER":94.2818,"MEAN_ANOMALY":265.8079,"EPHEMERIS_TYPE":0,"CLASSIFICATION_TYPE":"U","NORAD_CAT_ID":67242,"ELEMENT_SET_NO":999,"REV_AT_EPOCH":944,"BSTAR":0.00014349662,"MEAN_MOTION_DOT":-5.5e-7,"MEAN_MOTION_DDOT":0},{"OBJECT_NAME":"HULIANWANG DIGUI-135","OBJECT_ID":"2025-311H","EPOCH":"2026-03-04T14:12:02.791872","MEAN_MOTION":13.32978892,"ECCENTRICITY":8.808e-5,"INCLINATION":50.0009,"RA_OF_ASC_NODE":131.0806,"ARG_OF_PERICENTER":265.6623,"MEAN_ANOMALY":94.415,"EPHEMERIS_TYPE":0,"CLASSIFICATION_TYPE":"U","NORAD_CAT_ID":67243,"ELEMENT_SET_NO":999,"REV_AT_EPOCH":942,"BSTAR":0.00014776493,"MEAN_MOTION_DOT":-5.3e-7,"MEAN_MOTION_DDOT":0},{"OBJECT_NAME":"HULIANWANG DIGUI-136","OBJECT_ID":"2025-311J","EPOCH":"2026-03-03T06:53:48.930432","MEAN_MOTION":13.35587069,"ECCENTRICITY":0.00017346,"INCLINATION":50.012,"RA_OF_ASC_NODE":135.5779,"ARG_OF_PERICENTER":318.4482,"MEAN_ANOMALY":41.6261,"EPHEMERIS_TYPE":0,"CLASSIFICATION_TYPE":"U","NORAD_CAT_ID":67244,"ELEMENT_SET_NO":999,"REV_AT_EPOCH":925,"BSTAR":0.00012458582,"MEAN_MOTION_DOT":-6.3e-7,"MEAN_MOTION_DDOT":0},{"OBJECT_NAME":"HULIANWANG DIGUI-137","OBJECT_ID":"2026-007A","EPOCH":"2026-03-03T07:04:58.476000","MEAN_MOTION":13.44406338,"ECCENTRICITY":0.00017498,"INCLINATION":50.008,"RA_OF_ASC_NODE":106.1504,"ARG_OF_PERICENTER":116.8856,"MEAN_ANOMALY":243.2202,"EPHEMERIS_TYPE":0,"CLASSIFICATION_TYPE":"U","NORAD_CAT_ID":67435,"ELEMENT_SET_NO":999,"REV_AT_EPOCH":669,"BSTAR":0.00017791131,"MEAN_MOTION_DOT":-2.5e-7,"MEAN_MOTION_DDOT":0},{"OBJECT_NAME":"HULIANWANG DIGUI-138","OBJECT_ID":"2026-007B","EPOCH":"2026-03-03T07:24:38.053728","MEAN_MOTION":13.43759555,"ECCENTRICITY":5.936e-5,"INCLINATION":50.0071,"RA_OF_ASC_NODE":106.2207,"ARG_OF_PERICENTER":208.756,"MEAN_ANOMALY":151.3286,"EPHEMERIS_TYPE":0,"CLASSIFICATION_TYPE":"U","NORAD_CAT_ID":67436,"ELEMENT_SET_NO":999,"REV_AT_EPOCH":669,"BSTAR":0.00017503354,"MEAN_MOTION_DOT":-2.8e-7,"MEAN_MOTION_DDOT":0},{"OBJECT_NAME":"HULIANWANG DIGUI-139","OBJECT_ID":"2026-007C","EPOCH":"2026-03-05T00:19:20.202528","MEAN_MOTION":13.42449756,"ECCENTRICITY":5.894e-5,"INCLINATION":50.0019,"RA_OF_ASC_NODE":99.9004,"ARG_OF_PERICENTER":100.1492,"MEAN_ANOMALY":259.9452,"EPHEMERIS_TYPE":0,"CLASSIFICATION_TYPE":"U","NORAD_CAT_ID":67437,"ELEMENT_SET_NO":999,"REV_AT_EPOCH":692,"BSTAR":0.00020610328,"MEAN_MOTION_DOT":-1.2e-7,"MEAN_MOTION_DDOT":0},{"OBJECT_NAME":"HULIANWANG DIGUI-140","OBJECT_ID":"2026-007D","EPOCH":"2026-03-03T07:34:49.744128","MEAN_MOTION":13.43527498,"ECCENTRICITY":6.137e-5,"INCLINATION":50.0067,"RA_OF_ASC_NODE":106.2628,"ARG_OF_PERICENTER":210.9682,"MEAN_ANOMALY":149.116,"EPHEMERIS_TYPE":0,"CLASSIFICATION_TYPE":"U","NORAD_CAT_ID":67438,"ELEMENT_SET_NO":999,"REV_AT_EPOCH":669,"BSTAR":0.00019847315,"MEAN_MOTION_DOT":-1.4e-7,"MEAN_MOTION_DDOT":0},{"OBJECT_NAME":"HULIANWANG DIGUI-141","OBJECT_ID":"2026-007E","EPOCH":"2026-03-03T06:55:42.091968","MEAN_MOTION":13.44477953,"ECCENTRICITY":9.676e-5,"INCLINATION":50.0174,"RA_OF_ASC_NODE":106.0944,"ARG_OF_PERICENTER":218.2307,"MEAN_ANOMALY":141.8504,"EPHEMERIS_TYPE":0,"CLASSIFICATION_TYPE":"U","NORAD_CAT_ID":67439,"ELEMENT_SET_NO":999,"REV_AT_EPOCH":669,"BSTAR":0.00017959966,"MEAN_MOTION_DOT":-2.4e-7,"MEAN_MOTION_DDOT":0},{"OBJECT_NAME":"HULIANWANG DIGUI-142","OBJECT_ID":"2026-007F","EPOCH":"2026-03-04T09:32:27.014496","MEAN_MOTION":13.43451065,"ECCENTRICITY":0.00032604,"INCLINATION":50.0104,"RA_OF_ASC_NODE":102.0096,"ARG_OF_PERICENTER":327.4413,"MEAN_ANOMALY":32.6264,"EPHEMERIS_TYPE":0,"CLASSIFICATION_TYPE":"U","NORAD_CAT_ID":67440,"ELEMENT_SET_NO":999,"REV_AT_EPOCH":684,"BSTAR":3.8928843e-5,"MEAN_MOTION_DOT":-1.07e-6,"MEAN_MOTION_DDOT":0},{"OBJECT_NAME":"HULIANWANG DIGUI-143","OBJECT_ID":"2026-007G","EPOCH":"2026-03-03T06:37:00.254496","MEAN_MOTION":13.44825453,"ECCENTRICITY":0.0001458,"INCLINATION":50.0133,"RA_OF_ASC_NODE":106.0859,"ARG_OF_PERICENTER":312.0229,"MEAN_ANOMALY":48.0526,"EPHEMERIS_TYPE":0,"CLASSIFICATION_TYPE":"U","NORAD_CAT_ID":67441,"ELEMENT_SET_NO":999,"REV_AT_EPOCH":669,"BSTAR":0.00017428,"MEAN_MOTION_DOT":-2.7e-7,"MEAN_MOTION_DDOT":0},{"OBJECT_NAME":"HULIANWANG DIGUI-144","OBJECT_ID":"2026-007H","EPOCH":"2026-03-04T03:51:39.364992","MEAN_MOTION":13.44212062,"ECCENTRICITY":0.00014047,"INCLINATION":50.0083,"RA_OF_ASC_NODE":102.76,"ARG_OF_PERICENTER":304.176,"MEAN_ANOMALY":55.8985,"EPHEMERIS_TYPE":0,"CLASSIFICATION_TYPE":"U","NORAD_CAT_ID":67442,"ELEMENT_SET_NO":999,"REV_AT_EPOCH":681,"BSTAR":0.00016586359,"MEAN_MOTION_DOT":-3.2e-7,"MEAN_MOTION_DDOT":0}]
